{"type": "FeatureCollection", "features": [ {"type": "Feature", "properties": {"norad_id": 35033, "name": "COSMOS 2251 DEB", "group": "cosmos-2251-debris", "lat": -25.56792780818633, "lon": 20.999779634100097, "alt_km": 728.6243666091132, "timestamp": "2025-12-03T22:42:33.028527+00:00", "meta": {"OBJECT_NAME": "COSMOS 2251 DEB", "OBJECT_ID": "1993-036AGW", "EPOCH": "2025-12-01T21:46:02.380800", "MEAN_MOTION": 14.50844438, "ECCENTRICITY": 0.00143855, "INCLINATION": 74.0263, "RA_OF_ASC_NODE": 196.9584, "ARG_OF_PERICENTER": 303.7279, "MEAN_ANOMALY": 56.251, "EPHEMERIS_TYPE": 0, "CLASSIFICATION_TYPE": "U", "NORAD_CAT_ID": 35033, "ELEMENT_SET_NO": 999, "REV_AT_EPOCH": 65770, "BSTAR": 0.00069994659, "MEAN_MOTION_DOT": 2.736e-05, "MEAN_MOTION_DDOT": 0}, "tle": {"line1": "1 35033U 93036AGW 25335.90697200  .00002736  00000+0  69995-3 0  9994", "line2": "2 35033  74.0263 196.9584 0014385 303.7279  56.2510 14.50844438657707"}}, "geometry": {"type": "Point", "coordinates": [20.999779634100097, -25.56792780818633]}}, {"type": "Feature", "properties": {"norad_id": 35037, "name": "COSMOS 2251 DEB", "group": "cosmos-2251-debris", "lat": -71.5786229664117, "lon": 95.29180324380529, "alt_km": 292.12373174217646, "timestamp": "2025-12-03T22:42:33.028536+00:00", "meta": {"OBJECT_NAME": "COSMOS 2251 DEB", "OBJECT_ID": "1993-036AHA", "EPOCH": "2025-11-07T11:23:37.197312", "MEAN_MOTION": 15.53719687, "ECCENTRICITY": 0.0010282, "INCLINATION": 73.9601, "RA_OF_ASC_NODE": 214.7185, "ARG_OF_PERICENTER": 129.4999, "MEAN_ANOMALY": 230.7127, "EPHEMERIS_TYPE": 0, "CLASSIFICATION_TYPE": "U", "NORAD_CAT_ID": 35037, "ELEMENT_SET_NO": 999, "REV_AT_EPOCH": 66656, "BSTAR": 0.0068953187, "MEAN_MOTION_DOT": 0.00469331, "MEAN_MOTION_DDOT": 0}, "tle": {"line1": "1 35037U 93036AHA 25311.47473608  .00469331  00000+0  68953-2 0  9998", "line2": "2 35037  73.9601 214.7185 0010282 129.4999 230.7127 15.53719687666563"}}, "geometry": {"type": "Point", "coordinates": [95.29180324380529, -71.5786229664117]}}, {"type": "Feature", "properties": {"norad_id": 35038, "name": "COSMOS 2251 DEB", "group": "cosmos-2251-debris", "lat": -73.91287196143006, "lon": -40.52989142790798, "alt_km": 874.7655878386886, "timestamp": "2025-12-03T22:42:33.028545+00:00", "meta": {"OBJECT_NAME": "COSMOS 2251 DEB", "OBJECT_ID": "1993-036AHB", "EPOCH": "2025-12-02T22:25:29.053056", "MEAN_MOTION": 14.25054791, "ECCENTRICITY": 0.01136239, "INCLINATION": 74.1068, "RA_OF_ASC_NODE": 60.197, "ARG_OF_PERICENTER": 46.834, "MEAN_ANOMALY": 72.6585, "EPHEMERIS_TYPE": 0, "CLASSIFICATION_TYPE": "U", "NORAD_CAT_ID": 35038, "ELEMENT_SET_NO": 999, "REV_AT_EPOCH": 85429, "BSTAR": 0.001245273, "MEAN_MOTION_DOT": 3.098e-05, "MEAN_MOTION_DDOT": 0}, "tle": {"line1": "1 35038U 93036AHB 25336.93436404  .00003098  00000+0  12453-2 0  9998", "line2": "2 35038  74.1068  60.1970 0113623  46.8340  72.6585 14.25054791854290"}}, "geometry": {"type": "Point", "coordinates": [-40.52989142790798, -73.91287196143006]}}, {"type": "Feature", "properties": {"norad_id": 35043, "name": "COSMOS 2251 DEB", "group": "cosmos-2251-debris", "lat": -71.21227415145913, "lon": 5.115814963197213, "alt_km": 580.0143935645501, "timestamp": "2025-12-03T22:42:33.028554+00:00", "meta": {"OBJECT_NAME": "COSMOS 2251 DEB", "OBJECT_ID": "1993-036AHG", "EPOCH": "2025-12-01T12:30:27.515520", "MEAN_MOTION": 14.75939938, "ECCENTRICITY": 0.00983873, "INCLINATION": 73.9533, "RA_OF_ASC_NODE": 67.6713, "ARG_OF_PERICENTER": 278.6033, "MEAN_ANOMALY": 80.4003, "EPHEMERIS_TYPE": 0, "CLASSIFICATION_TYPE": "U", "NORAD_CAT_ID": 35043, "ELEMENT_SET_NO": 999, "REV_AT_EPOCH": 67253, "BSTAR": 0.0052130245, "MEAN_MOTION_DOT": 0.00038979, "MEAN_MOTION_DDOT": 0}, "tle": {"line1": "1 35043U 93036AHG 25335.52115180  .00038979  00000+0  52130-2 0  9995", "line2": "2 35043  73.9533  67.6713 0098387 278.6033  80.4003 14.75939938672537"}}, "geometry": {"type": "Point", "coordinates": [5.115814963197213, -71.21227415145913]}}, {"type": "Feature", "properties": {"norad_id": 35045, "name": "COSMOS 2251 DEB", "group": "cosmos-2251-debris", "lat": -2.239527637596486, "lon": 67.57911126391839, "alt_km": 802.1246201363829, "timestamp": "2025-12-03T22:42:33.028563+00:00", "meta": {"OBJECT_NAME": "COSMOS 2251 DEB", "OBJECT_ID": "1993-036AHJ", "EPOCH": "2025-12-03T00:25:53.959296", "MEAN_MOTION": 14.00351861, "ECCENTRICITY": 0.01831815, "INCLINATION": 73.7196, "RA_OF_ASC_NODE": 69.8724, "ARG_OF_PERICENTER": 313.2553, "MEAN_ANOMALY": 45.3412, "EPHEMERIS_TYPE": 0, "CLASSIFICATION_TYPE": "U", "NORAD_CAT_ID": 35045, "ELEMENT_SET_NO": 999, "REV_AT_EPOCH": 84507, "BSTAR": 0.00080749458, "MEAN_MOTION_DOT": 1.355e-05, "MEAN_MOTION_DDOT": 0}, "tle": {"line1": "1 35045U 93036AHJ 25337.01798564  .00001355  00000+0  80749-3 0  9992", "line2": "2 35045  73.7196  69.8724 0183181 313.2553  45.3412 14.00351861845074"}}, "geometry": {"type": "Point", "coordinates": [67.57911126391839, -2.239527637596486]}}, {"type": "Feature", "properties": {"norad_id": 35060, "name": "COSMOS 2251 DEB", "group": "cosmos-2251-debris", "lat": 38.3108290465733, "lon": -86.30997461133279, "alt_km": 742.3884444104306, "timestamp": "2025-12-03T22:42:33.028572+00:00", "meta": {"OBJECT_NAME": "COSMOS 2251 DEB", "OBJECT_ID": "1993-036AHP", "EPOCH": "2025-11-28T02:37:07.839264", "MEAN_MOTION": 14.41547968, "ECCENTRICITY": 0.00179641, "INCLINATION": 74.0363, "RA_OF_ASC_NODE": 271.4275, "ARG_OF_PERICENTER": 359.5881, "MEAN_ANOMALY": 0.5257, "EPHEMERIS_TYPE": 0, "CLASSIFICATION_TYPE": "U", "NORAD_CAT_ID": 35060, "ELEMENT_SET_NO": 999, "REV_AT_EPOCH": 87031, "BSTAR": 0.0004076845, "MEAN_MOTION_DOT": 1.301e-05, "MEAN_MOTION_DDOT": 0}, "tle": {"line1": "1 35060U 93036AHP 25332.10911851  .00001301  00000+0  40768-3 0  9998", "line2": "2 35060  74.0363 271.4275 0017964 359.5881   0.5257 14.41547968870310"}}, "geometry": {"type": "Point", "coordinates": [-86.30997461133279, 38.3108290465733]}}, {"type": "Feature", "properties": {"norad_id": 35061, "name": "COSMOS 2251 DEB", "group": "cosmos-2251-debris", "lat": 3.041179114864113, "lon": 141.83321618722294, "alt_km": 675.5027175160812, "timestamp": "2025-12-03T22:42:33.028581+00:00", "meta": {"OBJECT_NAME": "COSMOS 2251 DEB", "OBJECT_ID": "1993-036AHQ", "EPOCH": "2025-12-03T05:33:06.011712", "MEAN_MOTION": 14.67690423, "ECCENTRICITY": 0.0038808, "INCLINATION": 74.0447, "RA_OF_ASC_NODE": 324.0838, "ARG_OF_PERICENTER": 77.8847, "MEAN_ANOMALY": 282.6667, "EPHEMERIS_TYPE": 0, "CLASSIFICATION_TYPE": "U", "NORAD_CAT_ID": 35061, "ELEMENT_SET_NO": 999, "REV_AT_EPOCH": 88435, "BSTAR": 0.0010187, "MEAN_MOTION_DOT": 5.838e-05, "MEAN_MOTION_DDOT": 0}, "tle": {"line1": "1 35061U 93036AHQ 25337.23131958  .00005838  00000+0  10187-2 0  9990", "line2": "2 35061  74.0447 324.0838 0038808  77.8847 282.6667 14.67690423884356"}}, "geometry": {"type": "Point", "coordinates": [141.83321618722294, 3.041179114864113]}}, {"type": "Feature", "properties": {"norad_id": 35062, "name": "COSMOS 2251 DEB", "group": "cosmos-2251-debris", "lat": -32.443757202915585, "lon": -60.53387195454314, "alt_km": 840.5651342267238, "timestamp": "2025-12-03T22:42:33.028590+00:00", "meta": {"OBJECT_NAME": "COSMOS 2251 DEB", "OBJECT_ID": "1993-036AHR", "EPOCH": "2025-12-01T08:58:12.976320", "MEAN_MOTION": 14.22770227, "ECCENTRICITY": 0.01291712, "INCLINATION": 74.0782, "RA_OF_ASC_NODE": 113.6209, "ARG_OF_PERICENTER": 116.5829, "MEAN_ANOMALY": 244.8622, "EPHEMERIS_TYPE": 0, "CLASSIFICATION_TYPE": "U", "NORAD_CAT_ID": 35062, "ELEMENT_SET_NO": 999, "REV_AT_EPOCH": 85337, "BSTAR": 0.0022023834, "MEAN_MOTION_DOT": 5.359e-05, "MEAN_MOTION_DDOT": 0}, "tle": {"line1": "1 35062U 93036AHR 25335.37376130  .00005359  00000+0  22024-2 0  9998", "line2": "2 35062  74.0782 113.6209 0129171 116.5829 244.8622 14.22770227853379"}}, "geometry": {"type": "Point", "coordinates": [-60.53387195454314, -32.443757202915585]}}, {"type": "Feature", "properties": {"norad_id": 35065, "name": "COSMOS 2251 DEB", "group": "cosmos-2251-debris", "lat": -69.62191207302916, "lon": 81.23090922886641, "alt_km": 744.2159727264889, "timestamp": "2025-12-03T22:42:33.028599+00:00", "meta": {"OBJECT_NAME": "COSMOS 2251 DEB", "OBJECT_ID": "1993-036AHU", "EPOCH": "2025-12-03T08:14:08.184192", "MEAN_MOTION": 14.45682076, "ECCENTRICITY": 0.0019528, "INCLINATION": 74.0203, "RA_OF_ASC_NODE": 211.8755, "ARG_OF_PERICENTER": 338.2549, "MEAN_ANOMALY": 21.7777, "EPHEMERIS_TYPE": 0, "CLASSIFICATION_TYPE": "U", "NORAD_CAT_ID": 35065, "ELEMENT_SET_NO": 999, "REV_AT_EPOCH": 68215, "BSTAR": 0.00062183, "MEAN_MOTION_DOT": 2.179e-05, "MEAN_MOTION_DDOT": 0}, "tle": {"line1": "1 35065U 93036AHU 25337.34315028  .00002179  00000+0  62183-3 0  9997", "line2": "2 35065  74.0203 211.8755 0019528 338.2549  21.7777 14.45682076682151"}}, "geometry": {"type": "Point", "coordinates": [81.23090922886641, -69.62191207302916]}}, {"type": "Feature", "properties": {"norad_id": 35071, "name": "COSMOS 2251 DEB", "group": "cosmos-2251-debris", "lat": 73.28215313844001, "lon": -62.156458555106234, "alt_km": 502.365120104625, "timestamp": "2025-12-03T22:42:33.028608+00:00", "meta": {"OBJECT_NAME": "COSMOS 2251 DEB", "OBJECT_ID": "1993-036AJA", "EPOCH": "2025-12-03T07:55:04.067616", "MEAN_MOTION": 15.03160044, "ECCENTRICITY": 0.0068446, "INCLINATION": 73.9314, "RA_OF_ASC_NODE": 192.7815, "ARG_OF_PERICENTER": 92.1251, "MEAN_ANOMALY": 268.7777, "EPHEMERIS_TYPE": 0, "CLASSIFICATION_TYPE": "U", "NORAD_CAT_ID": 35071, "ELEMENT_SET_NO": 999, "REV_AT_EPOCH": 67395, "BSTAR": 0.00089094, "MEAN_MOTION_DOT": 0.00012654, "MEAN_MOTION_DDOT": 0}, "tle": {"line1": "1 35071U 93036AJA 25337.32990819  .00012654  00000+0  89094-3 0  9998", "line2": "2 35071  73.9314 192.7815 0068446  92.1251 268.7777 15.03160044673954"}}, "geometry": {"type": "Point", "coordinates": [-62.156458555106234, 73.28215313844001]}}]}